[{"COMMENT":"GENERATED VIA SPACETRACK.ORG API","ORIGINATOR":"18 SPCS","NORAD_CAT_ID":"43477","OBJECT_NAME":"GRACE-FO 2","OBJECT_TYPE":"PAYLOAD","CLASSIFICATION_TYPE":"U","INTLDES":"18047B","EPOCH":"2023-10-29 14:13:02","EPOCH_MICROSECONDS":"840736","MEAN_MOTION":"15.27183079","ECCENTRICITY":"0.0011145","INCLINATION":"88.9831","RA_OF_ASC_NODE":"330.9064","ARG_OF_PERICENTER":"232.5364","MEAN_ANOMALY":"127.4872","EPHEMERIS_TYPE":"0","ELEMENT_SET_NO":"999","REV_AT_EPOCH":"30250","BSTAR":"0.00016964","MEAN_MOTION_DOT":"0.00004553","MEAN_MOTION_DDOT":"0","FILE":"4059417","TLE_LINE0":"0 GRACE-FO 2","TLE_LINE1":"1 43477U 18047B   23302.59239399  .00004553  00000-0  16964-3 0  9990","TLE_LINE2":"2 43477  88.9831 330.9064 0011145 232.5364 127.4872 15.27183079302500","OBJECT_ID":"2018-047B","OBJECT_NUMBER":"43477","SEMIMAJOR_AXIS":"6862.375","PERIOD":"94.291","APOGEE":"491.888","PERIGEE":"476.592","DECAYED":"0"},{"COMMENT":"GENERATED VIA SPACETRACK.ORG API","ORIGINATOR":"18 SPCS","NORAD_CAT_ID":"43477","OBJECT_NAME":"GRACE-FO 2","OBJECT_TYPE":"PAYLOAD","CLASSIFICATION_TYPE":"U","INTLDES":"18047B","EPOCH":"2023-10-29 20:30:28","EPOCH_MICROSECONDS":"605600","MEAN_MOTION":"15.27185349","ECCENTRICITY":"0.0011173","INCLINATION":"88.983","RA_OF_ASC_NODE":"330.8705","ARG_OF_PERICENTER":"231.2826","MEAN_ANOMALY":"128.7425","EPHEMERIS_TYPE":"0","ELEMENT_SET_NO":"999","REV_AT_EPOCH":"30254","BSTAR":"0.00017198","MEAN_MOTION_DOT":"0.00004616","MEAN_MOTION_DDOT":"0","FILE":"4059994","TLE_LINE0":"0 GRACE-FO 2","TLE_LINE1":"1 43477U 18047B   23302.85449775  .00004616  00000-0  17198-3 0  9990","TLE_LINE2":"2 43477  88.9830 330.8705 0011173 231.2826 128.7425 15.27185349302544","OBJECT_ID":"2018-047B","OBJECT_NUMBER":"43477","SEMIMAJOR_AXIS":"6862.368","PERIOD":"94.291","APOGEE":"491.900","PERIGEE":"476.566","DECAYED":"0"},{"COMMENT":"GENERATED VIA SPACETRACK.ORG API","ORIGINATOR":"18 SPCS","NORAD_CAT_ID":"43477","OBJECT_NAME":"GRACE-FO 2","OBJECT_TYPE":"PAYLOAD","CLASSIFICATION_TYPE":"U","INTLDES":"18047B","EPOCH":"2023-10-30 12:14:02","EPOCH_MICROSECONDS":"877792","MEAN_MOTION":"15.27190511","ECCENTRICITY":"0.0011262","INCLINATION":"88.9829","RA_OF_ASC_NODE":"330.7808","ARG_OF_PERICENTER":"228.2113","MEAN_ANOMALY":"131.8175","EPHEMERIS_TYPE":"0","ELEMENT_SET_NO":"999","REV_AT_EPOCH":"30264","BSTAR":"0.00016413","MEAN_MOTION_DOT":"0.00004407","MEAN_MOTION_DDOT":"0","FILE":"4060815","TLE_LINE0":"0 GRACE-FO 2","TLE_LINE1":"1 43477U 18047B   23303.50975553  .00004407  00000-0  16413-3 0  9998","TLE_LINE2":"2 43477  88.9829 330.7808 0011262 228.2113 131.8175 15.27190511302644","OBJECT_ID":"2018-047B","OBJECT_NUMBER":"43477","SEMIMAJOR_AXIS":"6862.353","PERIOD":"94.291","APOGEE":"491.946","PERIGEE":"476.489","DECAYED":"0"},{"COMMENT":"GENERATED VIA SPACETRACK.ORG API","ORIGINATOR":"18 SPCS","NORAD_CAT_ID":"43477","OBJECT_NAME":"GRACE-FO 2","OBJECT_TYPE":"PAYLOAD","CLASSIFICATION_TYPE":"U","INTLDES":"18047B","EPOCH":"2023-10-30 21:40:11","EPOCH_MICROSECONDS":"327232","MEAN_MOTION":"15.27194506","ECCENTRICITY":"0.0011311","INCLINATION":"88.9828","RA_OF_ASC_NODE":"330.727","ARG_OF_PERICENTER":"226.4095","MEAN_ANOMALY":"133.6217","EPHEMERIS_TYPE":"0","ELEMENT_SET_NO":"999","REV_AT_EPOCH":"30270","BSTAR":"0.00017395","MEAN_MOTION_DOT":"0.0000467","MEAN_MOTION_DDOT":"0","FILE":"4061878","TLE_LINE0":"0 GRACE-FO 2","TLE_LINE1":"1 43477U 18047B   23303.90290888  .00004670  00000-0  17395-3 0  9995","TLE_LINE2":"2 43477  88.9828 330.7270 0011311 226.4095 133.6217 15.27194506302702","OBJECT_ID":"2018-047B","OBJECT_NUMBER":"43477","SEMIMAJOR_AXIS":"6862.341","PERIOD":"94.291","APOGEE":"491.968","PERIGEE":"476.444","DECAYED":"0"},{"COMMENT":"GENERATED VIA SPACETRACK.ORG API","ORIGINATOR":"18 SPCS","NORAD_CAT_ID":"43477","OBJECT_NAME":"GRACE-FO 2","OBJECT_TYPE":"PAYLOAD","CLASSIFICATION_TYPE":"U","INTLDES":"18047B","EPOCH":"2023-10-31 11:49:23","EPOCH_MICROSECONDS":"886048","MEAN_MOTION":"15.27198586","ECCENTRICITY":"0.0011399","INCLINATION":"88.9827","RA_OF_ASC_NODE":"330.6462","ARG_OF_PERICENTER":"223.7038","MEAN_ANOMALY":"136.331","EPHEMERIS_TYPE":"0","ELEMENT_SET_NO":"999","REV_AT_EPOCH":"30279","BSTAR":"0.00015742","MEAN_MOTION_DOT":"0.00004229","MEAN_MOTION_DDOT":"0","FILE":"4063043","TLE_LINE0":"0 GRACE-FO 2","TLE_LINE1":"1 43477U 18047B   23304.49263757  .00004229  00000-0  15742-3 0  9999","TLE_LINE2":"2 43477  88.9827 330.6462 0011399 223.7038 136.3310 15.27198586302791","OBJECT_ID":"2018-047B","OBJECT_NUMBER":"43477","SEMIMAJOR_AXIS":"6862.328","PERIOD":"94.290","APOGEE":"492.016","PERIGEE":"476.371","DECAYED":"0"},{"COMMENT":"GENERATED VIA SPACETRACK.ORG API","ORIGINATOR":"18 SPCS","NORAD_CAT_ID":"43477","OBJECT_NAME":"GRACE-FO 2","OBJECT_TYPE":"PAYLOAD","CLASSIFICATION_TYPE":"U","INTLDES":"18047B","EPOCH":"2023-10-31 19:41:10","EPOCH_MICROSECONDS":"785408","MEAN_MOTION":"15.27201228","ECCENTRICITY":"0.0011447","INCLINATION":"88.9826","RA_OF_ASC_NODE":"330.6014","ARG_OF_PERICENTER":"222.2403","MEAN_ANOMALY":"137.7965","EPHEMERIS_TYPE":"0","ELEMENT_SET_NO":"999","REV_AT_EPOCH":"30284","BSTAR":"0.00015487","MEAN_MOTION_DOT":"0.00004162","MEAN_MOTION_DDOT":"0","FILE":"4063162","TLE_LINE0":"0 GRACE-FO 2","TLE_LINE1":"1 43477U 18047B   23304.82026372  .00004162  00000-0  15487-3 0  9998","TLE_LINE2":"2 43477  88.9826 330.6014 0011447 222.2403 137.7965 15.27201228302842","OBJECT_ID":"2018-047B","OBJECT_NUMBER":"43477","SEMIMAJOR_AXIS":"6862.321","PERIOD":"94.290","APOGEE":"492.041","PERIGEE":"476.330","DECAYED":"0"},{"COMMENT":"GENERATED VIA SPACETRACK.ORG API","ORIGINATOR":"18 SPCS","NORAD_CAT_ID":"43477","OBJECT_NAME":"GRACE-FO 2","OBJECT_TYPE":"PAYLOAD","CLASSIFICATION_TYPE":"U","INTLDES":"18047B","EPOCH":"2023-10-31 21:15:32","EPOCH_MICROSECONDS":"160096","MEAN_MOTION":"15.272018","ECCENTRICITY":"0.001146","INCLINATION":"88.9826","RA_OF_ASC_NODE":"330.5924","ARG_OF_PERICENTER":"221.9549","MEAN_ANOMALY":"138.0824","EPHEMERIS_TYPE":"0","ELEMENT_SET_NO":"999","REV_AT_EPOCH":"30285","BSTAR":"0.00015631","MEAN_MOTION_DOT":"0.000042","MEAN_MOTION_DDOT":"0","FILE":"4063660","TLE_LINE0":"0 GRACE-FO 2","TLE_LINE1":"1 43477U 18047B   23304.88578889  .00004200  00000-0  15631-3 0  9993","TLE_LINE2":"2 43477  88.9826 330.5924 0011460 221.9549 138.0824 15.27201800302858","OBJECT_ID":"2018-047B","OBJECT_NUMBER":"43477","SEMIMAJOR_AXIS":"6862.319","PERIOD":"94.290","APOGEE":"492.048","PERIGEE":"476.320","DECAYED":"0"},{"COMMENT":"GENERATED VIA SPACETRACK.ORG API","ORIGINATOR":"18 SPCS","NORAD_CAT_ID":"43477","OBJECT_NAME":"GRACE-FO 2","OBJECT_TYPE":"PAYLOAD","CLASSIFICATION_TYPE":"U","INTLDES":"18047B","EPOCH":"2023-11-01 14:33:27","EPOCH_MICROSECONDS":"150336","MEAN_MOTION":"15.27207187","ECCENTRICITY":"0.0011569","INCLINATION":"88.9826","RA_OF_ASC_NODE":"330.4937","ARG_OF_PERICENTER":"218.7104","MEAN_ANOMALY":"141.3318","EPHEMERIS_TYPE":"0","ELEMENT_SET_NO":"999","REV_AT_EPOCH":"30296","BSTAR":"0.00014382","MEAN_MOTION_DOT":"0.00003868","MEAN_MOTION_DDOT":"0","FILE":"4064888","TLE_LINE0":"0 GRACE-FO 2","TLE_LINE1":"1 43477U 18047B   23305.60656424  .00003868  00000-0  14382-3 0  9997","TLE_LINE2":"2 43477  88.9826 330.4937 0011569 218.7104 141.3318 15.27207187302963","OBJECT_ID":"2018-047B","OBJECT_NUMBER":"43477","SEMIMAJOR_AXIS":"6862.303","PERIOD":"94.290","APOGEE":"492.107","PERIGEE":"476.229","DECAYED":"0"},{"COMMENT":"GENERATED VIA SPACETRACK.ORG API","ORIGINATOR":"18 SPCS","NORAD_CAT_ID":"43477","OBJECT_NAME":"GRACE-FO 2","OBJECT_TYPE":"PAYLOAD","CLASSIFICATION_TYPE":"U","INTLDES":"18047B","EPOCH":"2023-11-01 20:50:52","EPOCH_MICROSECONDS":"535040","MEAN_MOTION":"15.27209392","ECCENTRICITY":"0.0011615","INCLINATION":"88.9826","RA_OF_ASC_NODE":"330.4579","ARG_OF_PERICENTER":"217.5455","MEAN_ANOMALY":"142.4984","EPHEMERIS_TYPE":"0","ELEMENT_SET_NO":"999","REV_AT_EPOCH":"30300","BSTAR":"0.00014223","MEAN_MOTION_DOT":"0.00003826","MEAN_MOTION_DDOT":"0","FILE":"4065068","TLE_LINE0":"0 GRACE-FO 2","TLE_LINE1":"1 43477U 18047B   23305.86866360  .00003826  00000-0  14223-3 0  9995","TLE_LINE2":"2 43477  88.9826 330.4579 0011615 217.5455 142.4984 15.27209392303000","OBJECT_ID":"2018-047B","OBJECT_NUMBER":"43477","SEMIMAJOR_AXIS":"6862.296","PERIOD":"94.290","APOGEE":"492.132","PERIGEE":"476.190","DECAYED":"0"},{"COMMENT":"GENERATED VIA SPACETRACK.ORG API","ORIGINATOR":"18 SPCS","NORAD_CAT_ID":"43477","OBJECT_NAME":"GRACE-FO 2","OBJECT_TYPE":"PAYLOAD","CLASSIFICATION_TYPE":"U","INTLDES":"18047B","EPOCH":"2023-11-01 22:25:13","EPOCH_MICROSECONDS":"878624","MEAN_MOTION":"15.27209992","ECCENTRICITY":"0.0011626","INCLINATION":"88.9826","RA_OF_ASC_NODE":"330.4489","ARG_OF_PERICENTER":"217.2559","MEAN_ANOMALY":"142.7885","EPHEMERIS_TYPE":"0","ELEMENT_SET_NO":"999","REV_AT_EPOCH":"30301","BSTAR":"0.00014401","MEAN_MOTION_DOT":"0.00003873","MEAN_MOTION_DDOT":"0","FILE":"4065398","TLE_LINE0":"0 GRACE-FO 2","TLE_LINE1":"1 43477U 18047B   23305.93418841  .00003873  00000-0  14401-3 0  9990","TLE_LINE2":"2 43477  88.9826 330.4489 0011626 217.2559 142.7885 15.27209992303014","OBJECT_ID":"2018-047B","OBJECT_NUMBER":"43477","SEMIMAJOR_AXIS":"6862.294","PERIOD":"94.290","APOGEE":"492.137","PERIGEE":"476.181","DECAYED":"0"}]